CTC2_L_00499001-01
1 36191U 26592KB  26070.40849537  .00000000  00000+0  00000-0 0  9998
2 36191 101.2000   0.0000 0000000   0.0000   0.0000 12.76394637    15
CTC2_L_00499001-02
1 36192U 25775RI  26070.40849537  .00000000  00000+0  00000-0 0  9991
2 36192 101.2000   0.0000 0000000   0.0000  90.0000 12.76394637    15
CTC2_L_00499001-03
1 36193U 22149LJ  26070.40849537  .00000000  00000+0  00000-0 0  9994
2 36193 101.2000   0.0000 0000000   0.0000 180.0000 12.76394637    16
CTC2_L_00499001-04
1 36194U 23476BS  26070.40849537  .00000000  00000+0  00000-0 0  9999
2 36194 101.2000   0.0000 0000000   0.0000 270.0000 12.76394637    17
CTC2_L_00499002-01
1 36195U 25631BD  26070.40849537  .00000000  00000+0  00000-0 0  9995
2 36195 101.2000  12.0000 0000000   0.0000  12.0000 12.76394637    15
CTC2_L_00499002-02
1 36196U 26406IB  26070.40849537  .00000000  00000+0  00000-0 0  9997
2 36196 101.2000  12.0000 0000000   0.0000 102.0000 12.76394637    16
CTC2_L_00499002-03
1 36197U 25082WJ  26070.40849537  .00000000  00000+0  00000-0 0  9997
2 36197 101.2000  12.0000 0000000   0.0000 192.0000 12.76394637    16
CTC2_L_00499002-04
1 36198U 24485HP  26070.40849537  .00000000  00000+0  00000-0 0  9994
2 36198 101.2000  12.0000 0000000   0.0000 282.0000 12.76394637    17
CTC2_L_00499003-01
1 36199U 25541HE  26070.40849537  .00000000  00000+0  00000-0 0  9999
2 36199 101.2000  24.0000 0000000   0.0000  24.0000 12.76394637    15
CTC2_L_00499003-02
1 36200U 23519IS  26070.40849537  .00000000  00000+0  00000-0 0  9995
2 36200 101.2000  24.0000 0000000   0.0000 114.0000 12.76394637    18
CTC2_L_00499003-03
1 36201U 25741RM  26070.40849537  .00000000  00000+0  00000-0 0  9995
2 36201 101.2000  24.0000 0000000   0.0000 204.0000 12.76394637    19
CTC2_L_00499003-04
1 36202U 24878RW  26070.40849537  .00000000  00000+0  00000-0 0  9996
2 36202 101.2000  24.0000 0000000   0.0000 294.0000 12.76394637    19
CTC2_L_00499004-01
1 36203U 22937NK  26070.40849537  .00000000  00000+0  00000-0 0  9991
2 36203 101.2000  36.0000 0000000   0.0000  36.0000 12.76394637    17
CTC2_L_00499004-02
1 36204U 22804WO  26070.40849537  .00000000  00000+0  00000-0 0  9995
2 36204 101.2000  36.0000 0000000   0.0000 126.0000 12.76394637    18
CTC2_L_00499004-03
1 36205U 24335UQ  26070.40849537  .00000000  00000+0  00000-0 0  9997
2 36205 101.2000  36.0000 0000000   0.0000 216.0000 12.76394637    19
CTC2_L_00499004-04
1 36206U 23328PK  26070.40849537  .00000000  00000+0  00000-0 0  9999
2 36206 101.2000  36.0000 0000000   0.0000 306.0000 12.76394637    10
CTC2_L_00499005-01
1 36207U 24869ZY  26070.40849537  .00000000  00000+0  00000-0 0  9991
2 36207 101.2000  48.0000 0000000   0.0000  48.0000 12.76394637    17
CTC2_L_00499005-02
1 36208U 25238BG  26070.40849537  .00000000  00000+0  00000-0 0  9993
2 36208 101.2000  48.0000 0000000   0.0000 138.0000 12.76394637    18
CTC2_L_00499005-03
1 36209U 25031QQ  26070.40849537  .00000000  00000+0  00000-0 0  9995
2 36209 101.2000  48.0000 0000000   0.0000 228.0000 12.76394637    19
CTC2_L_00499005-04
1 36210U 24992NM  26070.40849537  .00000000  00000+0  00000-0 0  9992
2 36210 101.2000  48.0000 0000000   0.0000 318.0000 12.76394637    11
CTC2_L_00499006-01
1 36211U 24937KJ  26070.40849537  .00000000  00000+0  00000-0 0  9992
2 36211 101.2000  60.0000 0000000   0.0000  60.0000 12.76394637    10
CTC2_L_00499006-02
1 36212U 26299IL  26070.40849537  .00000000  00000+0  00000-0 0  9996
2 36212 101.2000  60.0000 0000000   0.0000 150.0000 12.76394637    11
CTC2_L_00499006-03
1 36213U 24995IT  26070.40849537  .00000000  00000+0  00000-0 0  9998
2 36213 101.2000  60.0000 0000000   0.0000 240.0000 12.76394637    12
CTC2_L_00499006-04
1 36214U 25075LA  26070.40849537  .00000000  00000+0  00000-0 0  9999
2 36214 101.2000  60.0000 0000000   0.0000 330.0000 12.76394637    13
CTC2_L_00499007-01
1 36215U 24047IL  26070.40849537  .00000000  00000+0  00000-0 0  9998
2 36215 101.2000  72.0000 0000000   0.0000  72.0000 12.76394637    10
CTC2_L_00499007-02
1 36216U 23149VR  26070.40849537  .00000000  00000+0  00000-0 0  9991
2 36216 101.2000  72.0000 0000000   0.0000 162.0000 12.76394637    11
CTC2_L_00499007-03
1 36217U 24183RC  26070.40849537  .00000000  00000+0  00000-0 0  9991
2 36217 101.2000  72.0000 0000000   0.0000 252.0000 12.76394637    12
CTC2_L_00499007-04
1 36218U 26237AA  26070.40849537  .00000000  00000+0  00000-0 0  9994
2 36218 101.2000  72.0000 0000000   0.0000 342.0000 12.76394637    13
CTC2_L_00499008-01
1 36219U 25679JW  26070.40849537  .00000000  00000+0  00000-0 0  9994
2 36219 101.2000  84.0000 0000000   0.0000  84.0000 12.76394637    10
CTC2_L_00499008-02
1 36220U 24585EE  26070.40849537  .00000000  00000+0  00000-0 0  9991
2 36220 101.2000  84.0000 0000000   0.0000 174.0000 12.76394637    12
CTC2_L_00499008-03
1 36221U 23804LQ  26070.40849537  .00000000  00000+0  00000-0 0  9995
2 36221 101.2000  84.0000 0000000   0.0000 264.0000 12.76394637    13
CTC2_L_00499008-04
1 36222U 26555VX  26070.40849537  .00000000  00000+0  00000-0 0  9992
2 36222 101.2000  84.0000 0000000   0.0000 354.0000 12.76394637    14
CTC2_L_00499009-01
1 36223U 24390QD  26070.40849537  .00000000  00000+0  00000-0 0  9998
2 36223 101.2000  96.0000 0000000   0.0000  96.0000 12.76394637    11
CTC2_L_00499009-02
1 36224U 23456XK  26070.40849537  .00000000  00000+0  00000-0 0  9991
2 36224 101.2000  96.0000 0000000   0.0000 186.0000 12.76394637    12
CTC2_L_00499009-03
1 36225U 23665UO  26070.40849537  .00000000  00000+0  00000-0 0  9994
2 36225 101.2000  96.0000 0000000   0.0000 276.0000 12.76394637    13
CTC2_L_00499009-04
1 36226U 25425PQ  26070.40849537  .00000000  00000+0  00000-0 0  9991
2 36226 101.2000  96.0000 0000000   0.0000   6.0000 12.76394637    15
CTC2_L_00499010-01
1 36227U 24497WY  26070.40849537  .00000000  00000+0  00000-0 0  9990
2 36227 101.2000 108.0000 0000000   0.0000 108.0000 12.76394637    13
CTC2_L_00499010-02
1 36228U 23893AA  26070.40849537  .00000000  00000+0  00000-0 0  9990
2 36228 101.2000 108.0000 0000000   0.0000 198.0000 12.76394637    13
CTC2_L_00499010-03
1 36229U 22428EM  26070.40849537  .00000000  00000+0  00000-0 0  9994
2 36229 101.2000 108.0000 0000000   0.0000 288.0000 12.76394637    14
CTC2_L_00499010-04
1 36230U 24468JI  26070.40849537  .00000000  00000+0  00000-0 0  9992
2 36230 101.2000 108.0000 0000000   0.0000  18.0000 12.76394637    17
CTC2_L_00499011-01
1 36231U 24683TQ  26070.40849537  .00000000  00000+0  00000-0 0  9992
2 36231 101.2000 120.0000 0000000   0.0000 120.0000 12.76394637    16
CTC2_L_00499011-02
1 36232U 24984BS  26070.40849537  .00000000  00000+0  00000-0 0  9997
2 36232 101.2000 120.0000 0000000   0.0000 210.0000 12.76394637    17
CTC2_L_00499011-03
1 36233U 23844SW  26070.40849537  .00000000  00000+0  00000-0 0  9992
2 36233 101.2000 120.0000 0000000   0.0000 300.0000 12.76394637    18
CTC2_L_00499011-04
1 36234U 26683CC  26070.40849537  .00000000  00000+0  00000-0 0  9997
2 36234 101.2000 120.0000 0000000   0.0000  30.0000 12.76394637    19
CTC2_L_00499012-01
1 36235U 25616TM  26070.40849537  .00000000  00000+0  00000-0 0  9993
2 36235 101.2000 132.0000 0000000   0.0000 132.0000 12.76394637    16
CTC2_L_00499012-02
1 36236U 26739RM  26070.40849537  .00000000  00000+0  00000-0 0  9991
2 36236 101.2000 132.0000 0000000   0.0000 222.0000 12.76394637    17
CTC2_L_00499012-03
1 36237U 25433KA  26070.40849537  .00000000  00000+0  00000-0 0  9992
2 36237 101.2000 132.0000 0000000   0.0000 312.0000 12.76394637    18
CTC2_L_00499012-04
1 36238U 22533NK  26070.40849537  .00000000  00000+0  00000-0 0  9991
2 36238 101.2000 132.0000 0000000   0.0000  42.0000 12.76394637    19
CTC2_L_00499013-01
1 36239U 25285YP  26070.40849537  .00000000  00000+0  00000-0 0  9999
2 36239 101.2000 144.0000 0000000   0.0000 144.0000 12.76394637    16
CTC2_L_00499013-02
1 36240U 26518IT  26070.40849537  .00000000  00000+0  00000-0 0  9991
2 36240 101.2000 144.0000 0000000   0.0000 234.0000 12.76394637    18
CTC2_L_00499013-03
1 36241U 26500IW  26070.40849537  .00000000  00000+0  00000-0 0  9993
2 36241 101.2000 144.0000 0000000   0.0000 324.0000 12.76394637    19
CTC2_L_00499013-04
1 36242U 23230NF  26070.40849537  .00000000  00000+0  00000-0 0  9991
2 36242 101.2000 144.0000 0000000   0.0000  54.0000 12.76394637    10
CTC2_L_00499014-01
1 36243U 23476XZ  26070.40849537  .00000000  00000+0  00000-0 0  9994
2 36243 101.2000 156.0000 0000000   0.0000 156.0000 12.76394637    17
CTC2_L_00499014-02
1 36244U 23272RS  26070.40849537  .00000000  00000+0  00000-0 0  9999
2 36244 101.2000 156.0000 0000000   0.0000 246.0000 12.76394637    18
CTC2_L_00499014-03
1 36245U 25707RL  26070.40849537  .00000000  00000+0  00000-0 0  9995
2 36245 101.2000 156.0000 0000000   0.0000 336.0000 12.76394637    19
CTC2_L_00499014-04
1 36246U 25608TB  26070.40849537  .00000000  00000+0  00000-0 0  9996
2 36246 101.2000 156.0000 0000000   0.0000  66.0000 12.76394637    10
CTC2_L_00499015-01
1 36247U 23665EU  26070.40849537  .00000000  00000+0  00000-0 0  9998
2 36247 101.2000 168.0000 0000000   0.0000 168.0000 12.76394637    17
CTC2_L_00499015-02
1 36248U 23654XI  26070.40849537  .00000000  00000+0  00000-0 0  9997
2 36248 101.2000 168.0000 0000000   0.0000 258.0000 12.76394637    18
CTC2_L_00499015-03
1 36249U 22798BV  26070.40849537  .00000000  00000+0  00000-0 0  9996
2 36249 101.2000 168.0000 0000000   0.0000 348.0000 12.76394637    19
CTC2_L_00499015-04
1 36250U 22380OK  26070.40849537  .00000000  00000+0  00000-0 0  9995
2 36250 101.2000 168.0000 0000000   0.0000  78.0000 12.76394637    11
CTC2_L_00499016-01
1 36251U 24361DS  26070.40849537  .00000000  00000+0  00000-0 0  9997
2 36251 101.2000 180.0000 0000000   0.0000 180.0000 12.76394637    10
CTC2_L_00499016-02
1 36252U 25450QV  26070.40849537  .00000000  00000+0  00000-0 0  9998
2 36252 101.2000 180.0000 0000000   0.0000 270.0000 12.76394637    11
